GLOBALSTAR M057         
1 25943U 99058A   24356.53752878 -.00000064  00000+0  25878-3 0  9992
2 25943  51.9966 132.3646 0002624  39.4226 320.6814 12.24805457145165
GLOBALSTAR M059         
1 25944U 99058B   24356.35511588 -.00000091  00000+0 -55181-4 0  9996
2 25944  52.0042 328.2636 0000474   8.3511 139.8965 11.99973431552697
GLOBALSTAR M056         
1 25945U 99058C   24356.39320428 -.00000115  00000+0 -32414-3 0  9992
2 25945  51.9988 334.6826 0000629 184.7333 292.5554 12.04775366141194
GLOBALSTAR M031         
1 25946U 99058D   24356.22932230 -.00000173  00000+0 -83363-3 0  9998
2 25946  51.9949 238.1182 0001449 132.2437  18.8119 12.16025424142899
GLOBALSTAR M039         
1 25961U 99062A   24356.48371951 -.00000088  00000+0  86662-4 0  9995
2 25961  51.9851  89.9606 0001872 320.2146  39.8583 12.62313559157778
GLOBALSTAR M034         
1 25962U 99062B   24356.58354222 -.00000065  00000+0  25180-3 0  9991
2 25962  51.9863 113.0515 0014698  69.0820  44.1692 11.79437728117438
GLOBALSTAR M029         
1 25963U 99062C   24356.18717508 -.00000066  00000+0  25558-3 0  9998
2 25963  51.9777 216.9087 0003430 111.1139  43.6806 11.99889370147759
GLOBALSTAR M061         
1 25964U 99062D   24356.36239257 -.00000050  00000+0  49336-3 0  9992
2 25964  51.9808 295.3040 0006471 355.3755 151.3503 11.76769181100245
